[{"OBJECT_NAME":"STARLINK-3829","OBJECT_ID":"2022-045T","EPOCH":"2026-03-09T15:12:34.525152","MEAN_MOTION":15.08835754,"ECCENTRICITY":0.0001229,"INCLINATION":53.217,"RA_OF_ASC_NODE":199.373,"ARG_OF_PERICENTER":94.723,"MEAN_ANOMALY":265.3902,"EPHEMERIS_TYPE":0,"CLASSIFICATION_TYPE":"U","NORAD_CAT_ID":52348,"ELEMENT_SET_NO":999,"REV_AT_EPOCH":21577,"BSTAR":4.4647e-5,"MEAN_MOTION_DOT":4.23e-6,"MEAN_MOTION_DDOT":0},{"OBJECT_NAME":"JILIN-01 KUANFU 02B 4","OBJECT_ID":"2024-169D","EPOCH":"2026-03-09T23:04:43.463424","MEAN_MOTION":15.0922271,"ECCENTRICITY":0.00080501,"INCLINATION":97.5522,"RA_OF_ASC_NODE":159.355,"ARG_OF_PERICENTER":260.1533,"MEAN_ANOMALY":99.8787,"EPHEMERIS_TYPE":0,"CLASSIFICATION_TYPE":"U","NORAD_CAT_ID":61192,"ELEMENT_SET_NO":999,"REV_AT_EPOCH":8086,"BSTAR":0.00035789888,"MEAN_MOTION_DOT":5.634e-5,"MEAN_MOTION_DDOT":0}]
